,OBJECT_NAME,OBJECT_ID,EPOCH,MEAN_MOTION,ECCENTRICITY,INCLINATION,RA_OF_ASC_NODE,ARG_OF_PERICENTER,MEAN_ANOMALY,NORAD_CAT_ID,REV_AT_EPOCH,BSTAR,MEAN_MOTION_DOT,MEAN_MOTION_DDOT,SEMIMAJOR_AXIS,PERIOD,APOAPSIS,PERIAPSIS,OBJECT_TYPE,RCS_SIZE,COUNTRY_CODE,LAUNCH_DATE,SITE
2991,FENGYUN 1C DEB,1999-025CVJ,2021-10-31T23:07:57.180000,14.33364663,0.0152829,99.5696,210.028,84.5817,340.8764,32212,74538,0.00021486,6.19e-06,0.0,7158.643,100.463,889.913,671.103,2,0,PRC,1999.0,TSC
2992,FENGYUN 1C DEB,1999-025CVL,2021-10-31T10:18:20.426112,13.7387177,0.0222711,99.0306,11.2414,95.7565,279.5063,32214,41682,0.0006527,6.92e-06,0.0,7363.841,104.813,1149.706,821.705,2,0,PRC,1999.0,TSC
2993,FENGYUN 1C DEB,1999-025CVN,2021-10-29T18:21:55.515168,14.36022213,0.0053364,99.5647,133.0008,53.59,307.0186,32216,40870,0.00079694,2.302e-05,0.0,7149.808,100.277,809.828,733.519,2,0,PRC,1999.0,TSC
2994,FENGYUN 1C DEB,1999-025CVP,2021-10-30T01:38:06.731808,14.36343058,0.0047415,99.0941,240.4862,195.1972,164.7791,32217,34293,0.00075185,2.18e-05,0.0,7148.744,100.255,804.504,736.713,2,0,PRC,1999.0,TSC
2995,FENGYUN 1C DEB,1999-025CVQ,2021-10-31T14:29:01.708800,14.38631728,0.0081775,98.6969,68.2775,251.0495,121.0392,32218,74677,0.0002534,7.59e-06,0.0,7141.16,100.095,821.422,704.628,2,0,PRC,1999.0,TSC
2996,FENGYUN 1C DEB,1999-025CVT,2021-10-31T13:20:34.181088,14.51679002,0.0163648,98.4063,53.1327,78.8986,283.0561,32221,75347,9.74e-05,4.12e-06,0.0,7098.307,99.195,836.334,604.01,2,0,PRC,1999.0,TSC
2997,FENGYUN 1C DEB,1999-025CVU,2021-10-27T08:10:55.236576,14.24353402,0.009789,99.1533,136.6143,318.9278,40.4558,32222,42904,0.00069615,1.643e-05,0.0,7188.804,101.099,881.041,740.298,2,0,PRC,1999.0,TSC
2998,FENGYUN 1C DEB,1999-025CVV,2021-10-28T10:04:07.054176,14.09746792,0.0056535,98.9271,8.8992,274.1035,146.114,32223,42934,0.00059247,1.011e-05,0.0,7238.375,102.146,901.162,819.318,2,0,PRC,1999.0,TSC
2999,FENGYUN 1C DEB,1999-025CVW,2021-11-01T11:14:44.505024,14.30254725,0.0081223,98.9727,189.8287,126.9113,233.9546,32224,74371,0.00011369,2.59e-06,0.0,7169.017,100.681,849.11,732.653,2,0,PRC,1999.0,TSC
3000,FENGYUN 1C DEB,1999-025CVX,2021-10-31T05:45:19.539072,14.11277555,0.0074407,99.1943,298.3821,103.1726,257.776,32225,46898,9.7377e-05,1.34e-06,0.0,7233.14,102.035,908.825,801.186,2,0,PRC,1999.0,TSC
3001,FENGYUN 1C DEB,1999-025CVY,2021-10-31T05:37:01.564896,15.22444652,0.0013455,99.4451,38.1847,304.0459,55.9493,32226,76616,0.006078,0.00143526,0.0,6876.606,94.585,507.724,489.219,2,0,PRC,1999.0,TSC
3002,FENGYUN 1C DEB,1999-025CVZ,2021-10-31T18:34:31.882368,14.79746032,0.0139067,99.5078,131.5279,139.8299,234.066,32227,76973,0.00052755,4.598e-05,0.0,7008.263,97.314,727.59,532.666,2,0,PRC,1999.0,TSC
3003,FENGYUN 1C DEB,1999-025CWA,2021-10-30T12:24:31.294368,14.4885152,0.0090481,98.5966,43.5343,84.5803,276.5704,32228,75410,0.0008894,3.493e-05,0.0,7107.539,99.389,793.714,665.094,2,0,PRC,1999.0,TSC
3004,FENGYUN 1C DEB,1999-025CWC,2021-10-29T05:22:27.016320,14.23265514,0.0091598,98.8489,34.0399,192.0893,197.348,32230,74122,0.00090525,2.095e-05,0.0,7192.467,101.176,880.214,748.451,2,0,PRC,1999.0,TSC
3005,FENGYUN 1C DEB,1999-025CWE,2021-10-29T05:59:15.173088,14.58799591,0.0112871,97.0661,113.6457,359.8087,0.3054,32232,75052,0.0012995,6.6e-05,0.0,7075.19,98.711,776.913,617.196,2,0,PRC,1999.0,TSC
3006,FENGYUN 1C DEB,1999-025CWF,2021-10-20T21:57:09.228096,14.02136893,0.0251698,97.7087,176.8754,208.6052,150.1115,32233,72913,0.00025225,4.74e-06,0.0,7264.542,102.7,1069.254,703.56,2,0,PRC,1999.0,TSC
3007,FENGYUN 1C DEB,1999-025CWG,2021-10-31T02:56:56.011200,13.87487103,0.0144734,98.5796,248.3811,156.0161,204.7829,32234,72315,0.00083236,1.029e-05,0.0,7315.587,103.785,1043.334,831.571,2,0,PRC,1999.0,TSC
3008,FENGYUN 1C DEB,1999-025CWH,2021-10-31T17:31:08.171616,14.70698753,0.0110474,99.0596,108.3619,166.5804,206.6752,32235,42440,0.0010096,6.702e-05,0.0,7036.975,97.913,736.581,581.1,2,0,PRC,1999.0,TSC
3009,FENGYUN 1C DEB,1999-025CWL,2021-10-31T14:15:06.680448,15.0612426,0.0135103,98.8988,249.2609,67.5918,293.9554,32238,77920,0.00071982,0.00012879,0.0,6926.194,95.61,641.634,454.484,2,0,PRC,1999.0,TSC
3010,FENGYUN 1C DEB,1999-025CWP,2021-10-31T04:38:06.376704,14.13399743,0.0175887,99.0454,273.1959,186.1529,173.7483,32241,72490,0.00049231,1.027e-05,0.0,7225.898,101.882,974.857,720.669,2,0,PRC,1999.0,TSC
3011,FENGYUN 1C DEB,1999-025CWQ,2021-10-28T21:19:03.543744,13.79192995,0.0170866,97.2622,174.2696,231.7629,126.8045,32242,42127,0.00031902,3.35e-06,0.0,7344.887,104.409,1092.252,841.253,2,0,PRC,1999.0,TSC
3012,FENGYUN 1C DEB,1999-025CWR,2021-10-31T16:01:14.921184,13.88384079,0.0318752,98.2929,95.077,14.5772,346.4324,32243,72630,0.00083719,1.468e-05,0.0,7312.436,103.718,1167.387,701.216,2,0,PRC,1999.0,TSC
3013,FENGYUN 1C DEB,1999-025CWT,2021-10-29T06:38:05.519328,14.4808322,0.0152516,98.5488,61.2435,293.5014,65.0214,32245,44159,0.00034942,1.45e-05,0.0,7110.053,99.442,840.358,623.478,2,0,PRC,1999.0,TSC
3014,OPTUS D2,2007-044A,2021-10-31T19:40:04.825056,1.00270194,0.0003565,0.0164,257.4666,320.4489,269.4376,32252,5163,0.0,-1.76e-06,0.0,42165.178,1436.12,35802.075,35772.011,0,2,AUS,2007.0,FRGUI
3015,ARIANE 5 R/B,2007-044C,2021-10-31T10:00:22.445280,2.46997276,0.7091598,4.7221,27.6771,32.4956,355.8067,32254,12636,0.00041179,5e-07,0.0,23117.475,583.002,33133.324,345.356,1,2,FR,2007.0,FRGUI
3016,ARIANE 5 DEB (SYLDA),2007-044D,2021-10-31T17:18:17.069760,2.26320073,0.7165434,4.7726,350.8352,118.875,273.9209,32255,11618,-0.0010047,-7.7e-07,0.0,24504.911,636.267,35685.608,567.944,2,2,FR,2007.0,FRGUI
3017,WGS F1 (USA 195),2007-046A,2021-11-01T04:11:42.683712,1.00272069,6.39e-05,0.0143,183.7168,20.108,265.8035,32258,5138,0.0,4.9e-07,0.0,42164.652,1436.093,35789.212,35783.823,0,2,US,2007.0,AFETR
3018,NAVSTAR 60 (USA 196),2007-047A,2021-10-30T12:58:44.452128,2.00560524,0.0136342,53.2571,150.0723,59.4832,301.9427,32260,10290,0.0,8e-07,0.0,26560.62,717.988,20544.618,19820.352,0,2,US,2007.0,AFETR
3019,GLOBALSTAR M067,2007-048A,2021-10-31T18:40:17.426208,12.40602458,0.0001217,51.9733,310.9824,38.8754,132.4477,32263,64509,0.00013865,-7.9e-07,0.0,7882.187,116.073,1505.012,1503.093,0,2,GLOB,2007.0,TTMTR
3020,GLOBALSTAR M070,2007-048B,2021-11-01T01:00:33.571008,12.62265731,0.0001862,51.9741,202.1311,94.1513,346.2337,32264,64742,-3.79e-06,-1.04e-06,0.0,7791.743,114.081,1415.059,1412.158,0,2,GLOB,2007.0,TTMTR
3021,GLOBALSTAR M066,2007-048C,2021-10-31T20:28:49.022688,12.62270056,0.0001071,51.9686,65.1142,184.2951,318.5752,32265,64868,3.2797e-05,-9.8e-07,0.0,7791.726,114.08,1414.425,1412.756,0,2,GLOB,2007.0,TTMTR
3022,GLOBALSTAR M068,2007-048D,2021-10-31T12:34:39.827712,12.62728143,0.0001191,51.9913,19.868,93.5273,279.4095,32266,65020,-7.03e-06,-1.05e-06,0.0,7789.841,114.039,1412.634,1410.778,0,2,GLOB,2007.0,TTMTR
3023,SL-6 R/B(2),2007-049D,2021-10-26T04:22:07.661568,2.05486574,0.7348003,62.9795,108.6342,256.117,19.5098,32271,10510,-0.00047154,1.085e-05,0.0,26134.42,700.776,38959.865,552.705,1,2,CIS,2007.0,PKMTR
3024,COSMOS 2433 (GLONASS),2007-052A,2021-10-31T19:32:42.639360,2.13104239,0.0004394,66.0767,12.2612,225.2738,311.1392,32275,10909,0.0,-5.5e-07,0.0,25507.846,675.726,19140.919,19118.503,0,2,CIS,2007.0,TTMTR
3025,COSMOS 2432 (GLONASS),2007-052B,2021-10-31T13:36:45.724032,2.13103432,0.000865,66.0901,12.3666,317.7791,337.916,32276,10908,0.0,-5.6e-07,0.0,25507.91,675.728,19151.839,19107.711,0,2,CIS,2007.0,TTMTR
3026,COSMOS 2431 (GLONASS),2007-052C,2021-10-31T09:32:27.327264,2.13208538,0.001597,66.0895,12.2297,180.0245,181.1381,32277,10919,0.0,-5.6e-07,0.0,25499.526,675.395,19162.114,19080.669,0,2,CIS,2007.0,TTMTR
3027,SL-12 R/B(2),2007-052D,2021-10-31T13:39:34.199712,2.13393699,0.0017144,66.0787,11.8006,201.3788,63.2567,32278,10915,0.0,-5.5e-07,0.0,25484.774,674.809,19150.33,19062.948,1,2,CIS,2007.0,TTMTR
3028,SL-12 R/B(AUX MOTOR),2007-052F,2021-10-31T13:05:12.442560,4.21882102,0.5608868,65.192,175.182,308.7509,13.275,32280,12173,5.43e-06,7.3e-07,0.0,16178.606,341.328,18874.838,726.105,1,1,CIS,2007.0,TTMTR
3029,SL-12 R/B(AUX MOTOR),2007-052G,2021-10-31T01:05:31.766784,4.23634396,0.5571334,65.3707,163.3697,293.9946,18.5396,32281,21631,3.555e-05,9.8e-07,0.0,16133.962,339.916,18744.596,767.058,1,1,CIS,2007.0,TTMTR
3030,YAOGAN 3,2007-055A,2021-11-01T04:54:40.336992,14.81129867,0.0001643,97.9679,323.7536,104.9198,255.2203,32289,75525,-1.3037e-05,-1.54e-06,0.0,7003.897,97.223,626.913,624.611,0,2,PRC,2007.0,TSC
3031,CZ-4C R/B,2007-055B,2021-10-31T18:21:29.058624,15.40885449,0.0056805,97.6849,130.1042,181.1741,178.9381,32290,77723,0.00019319,8.307e-05,0.0,6821.632,93.453,482.247,404.746,1,2,PRC,2007.0,TSC
3032,STAR ONE C1,2007-056A,2021-10-31T20:53:42.504576,1.00124853,0.0001798,0.3854,95.3315,50.2795,137.128,32293,3483,0.0,-2.42e-06,0.0,42205.973,1438.204,35835.426,35820.249,0,2,BRAZ,2007.0,FRGUI
3033,SKYNET 5B,2007-056B,2021-11-01T03:40:21.160416,1.00269971,0.0003699,0.9539,90.157,124.3674,266.33,32294,5125,0.0,1.5e-06,0.0,42165.24,1436.123,35802.702,35771.509,0,2,UK,2007.0,FRGUI
3034,ARIANE 5 R/B,2007-056C,2021-10-31T12:38:55.530240,2.69782104,0.6958336,6.388,18.7823,144.0951,293.2838,32295,12634,0.00065273,2.816e-05,0.0,21796.817,533.764,30585.64,251.724,1,2,FR,2007.0,FRGUI
3035,ASTRA 4A (SIRIUS 4),2007-057A,2021-10-31T18:57:52.843680,1.00272167,0.0002865,0.0031,40.6445,185.8154,103.1578,32299,3473,0.0,4e-07,0.0,42164.625,1436.091,35798.57,35774.41,0,2,SES,2007.0,TTMTR
3036,BREEZE-M R/B,2007-057C,2021-11-01T03:12:42.609600,1.90168985,0.5122675,15.7956,207.8213,316.4249,295.3403,32301,9693,0.0,-6.3e-07,0.0,27519.596,757.221,35238.855,7044.066,1,2,CIS,2007.0,TTMTR
3037,FENGYUN 1C DEB,1999-025CWV,2021-10-29T06:02:28.725504,14.35494414,0.0064554,99.4133,85.9863,298.593,60.8767,32304,34592,0.00041812,1.179e-05,0.0,7151.561,100.314,819.592,727.26,2,0,PRC,1999.0,TSC
3038,FENGYUN 1C DEB,1999-025CWW,2021-10-28T08:36:46.948608,13.99455522,0.0216301,98.0104,343.8851,104.9793,257.5427,32305,44739,0.0010253,1.793e-05,0.0,7273.818,102.897,1053.017,738.35,2,0,PRC,1999.0,TSC
